GLOBALSTAR M084         
1 38040U 11080A   25055.24314751 -.00000089  00000+0  83017-4 0  9999
2 38040  52.0025  32.3141 0000571 113.4508 349.2842 12.62262477608409
GLOBALSTAR M080         
1 38041U 11080B   25055.19741992 -.00000094  00000+0  55150-4 0  9998
2 38041  52.0076  34.0233 0000818 106.0416 266.9717 12.62277285608529
GLOBALSTAR M082         
1 38042U 11080C   25055.56158345 -.00000089  00000+0  83081-4 0  9992
2 38042  52.0104 348.3482 0000473  13.9442 156.7519 12.62273254609272
GLOBALSTAR M092         
1 38043U 11080D   25055.53408426 -.00000097  00000+0  35941-4 0  9999
2 38043  52.0079  78.8006 0000411 127.9389  37.7504 12.62273093607720
GLOBALSTAR M090         
1 38044U 11080E   25055.50921080 -.00000088  00000+0  88385-4 0  9993
2 38044  51.9913 342.4626 0000555  51.1247 120.3689 12.62267005609387
GLOBALSTAR M086         
1 38045U 11080F   25055.53605527 -.00000080  00000+0  13044-3 0  9993
2 38045  51.9926 342.9231 0001448  69.8261 104.1383 12.62267031609338
GLOBALSTAR M097         
1 39072U 13005A   25055.52445380 -.00000064  00000+0  21949-3 0  9996
2 39072  52.0030 257.3924 0001013  74.1347 285.9631 12.62270503556587
GLOBALSTAR M093         
1 39073U 13005B   25055.49751406 -.00000069  00000+0  19162-3 0  9991
2 39073  51.9791 250.9534 0001011  74.6929 285.4049 12.62262001556532
